OBJECTID,Latitude,Longitude,Name,Address,City,Zip Code,x,y
1,34.05470006,-118.2616069,CITY OF LOS ANGELES HOUSING AND COMMUNITY INVESTMENT DEPARTMENT - CENTRAL CITY NEIGHBORHOOD PARTNERS - WESTLAKE PICO UNION FAMILY SOURCE CENTER FAMILYSOURCE CENTER,501 S BIXEL ST,LOS ANGELES,90017,6482428.85457556,1842389.92638905
2,34.0373501,-118.3174509,CITY OF LOS ANGELES HOUSING AND COMMUNITY INVESTMENT DEPARTMENT - 1736 FAMILY CRISIS CENTER - WEST ADAMS FAMILYSOURCE CENTER,2116 ARLINGTON AVE STE 200,LOS ANGELES,90018,6465493.65550639,1836124.68990381
3,34.08774048,-117.9625185,CITY OF BALDWIN PARK DEPARTMENT OF RECREATION AND COMMUNITY SERVICES - TERI G. MUSE FAMILY SERVICE CENTER,14305 MORGAN ST,BALDWIN PARK,91706,6573019.12943138,1854312.97045632
4,33.8427985,-118.0701091,CITY OF LAKEWOOD RECREATION AND COMMUNITY SERVICES - PALMS PARK AND COMMUNITY CENTER / DASH TRANSIT,12305 E 207TH ST,LAKEWOOD,90715,6540380.29018164,1765178.58573331
5,34.03785781,-118.178408,LOS ANGELES COUNTY AGING AND DISABILITIES DEPARTMENT - EAST LOS ANGELES COMMUNITY SERVICE CENTER,133 N SUNOL DR,LOS ANGELES,90063,6507619.13260697,1836205.55391531
6,33.9642626,-118.0676184,LOS ANGELES COUNTY AGING AND DISABILITIES DEPARTMENT - LOS NIETOS COMMUNITY AND SENIOR CENTER,11640 E SLAUSON AVE,WHITTIER,90606,6541166.37587981,1809381.67777315
7,33.78395405,-118.1916333,CATHOLIC CHARITIES OF LOS ANGELES - SAN PEDRO REGION - LONG BEACH COMMUNITY SERVICES CENTER,123 E 14TH ST,LONG BEACH,90813,6503436.18985739,1743811.59893981
8,34.4178966,-118.5430913,LOS ANGELES COUNTY AGING AND DISABILITIES DEPARTMENT - SANTA CLARITA VALLEY SERVICE CENTER,26111 BOUQUET CANYON RD STE H1 BLDG G-0,SANTA CLARITA,91350,6397881.14998363,1974903.29522006
9,34.04482187,-118.0452702,LOS ANGELES COUNTY DEPARTMENT OF AGING AND DISABILITY - SAN GABRIEL VALLEY SERVICE CENTER,1441 SANTA ANITA AVE,SOUTH EL MONTE,91733,6547956.23664388,1838695.03450064
10,34.06494091,-118.0358827,CITY OF EL MONTE COMMUNITY AND SENIOR SERVICES - JACK CRIPPEN MULTIPURPOSE SENIOR CENTER,3120 TYLER AVE,EL MONTE,91731,6550802.68994047,1846015.59499073
11,34.04057551,-118.1645415,LOS ANGELES COUNTY AGING AND DISABILITIES DEPARTMENT - CENTRO MARAVILLA SERVICE CENTER,4716 E CESAR E CHAVEZ AVE,LOS ANGELES,90022,6511821.79874231,1837187.41054739
12,33.902901,-118.304243,LOS ANGELES COUNTY AGING AND DISABILITIES DEPARTMENT - ASIAN COMMUNITY SERVICE CENTER,14112 S KINGSLEY DR,GARDENA,90249,6469347.08743206,1787183.64342915
13,34.27538464,-118.3960079,RESCUE MISSION ALLIANCE - VALLEY FOOD BANK - LAKEVIEW TERRACE AMERICAN BAPTIST CHURCH,11901 FOOTHILL BLVD,SYLMAR,91342,6442034.97407739,1922833.65099998
14,34.204725,-118.4094135,AIDS PROJECT LOS ANGELES - VANCE NORTH NECESSITIES OF LIFE PROGRAM - NORTH HOLLYWOOD,7336 BELLAIRE AVE,NORTH HOLLYWOOD,91605,6437880.38232097,1897135.76505989
15,34.70119974,-118.1446044,LOS ANGELES COUNTY AGING AND DISABILITIES DEPARTMENT - ANTELOPE VALLEY SENIOR CENTER,777 W JACKMAN ST,LANCASTER,93534,6518207.67475006,2077593.2289474
16,34.20837153,-118.5279255,RESCUE MISSION ALLIANCE - VALLEY FOOD BANK - FIRST UNITED METHODIST CHURCH OF RESEDA,18120 SATICOY ST,RESEDA,91335,6402054.44478664,1898629.85885648
17,34.25967,-118.502284,RESCUE MISSION ALLIANCE - VALLEY FOOD BANK - VALLEY KOREAN UNITED METHODIST CHURCH,10408 BALBOA BLVD,GRANADA HILLS,91344,6409900.25553855,1917258.33931598
18,33.92463659,-118.240419,AIDS PROJECT LOS ANGELES - VANCE NORTH NECESSITIES OF LIFE PROGRAM - OASIS CLINIC,1807 E 120TH ST,LOS ANGELES,90059,6488733.50928906,1795041.2287638
19,34.0100917,-118.4948293,AIDS PROJECT LOS ANGELES - VANCE NORTH NECESSITIES OF LIFE PROGRAM - SANTA MONICA,1637 APPIAN WAY,SANTA MONICA,90401,6411705.63152097,1826422.0659364
20,33.91501771,-118.271824,LOS ANGELES COUNTY AGING AND DISABILITIES DEPARTMENT - WILLOWBROOK SENIOR CENTER,12915 JARVIS AVE,LOS ANGELES,90061,6479196.60907155,1791564.98834097
21,34.026372,-118.3351265,WEST ANGELES COMMUNITY DEVELOPMENT CORPORATION - COMMUNITY ASSISTANCE DEPARTMENT,3045 CRENSHAW BLVD,LOS ANGELES,90016,6460125.25712247,1832146.94687507
22,34.0175914,-117.9125652,BUDDHIST TZU CHI FOUNDATION - MOBILE FOOD PANTRY - VILLACORTA ELEMENTARY SCHOOL,17840 VILLACORTA ST,LA PUENTE,91744,6588166.37538356,1828793.76394889
23,34.0995601,-117.7531131,AIDS PROJECT LOS ANGELES - VANCE NORTH NECESSITIES OF LIFE PROGRAM - CLAREMONT,233 W HARRISON AVE,CLAREMONT,91711,6636413.01642288,1858704.0305718
24,34.57983647,-118.1239957,AIDS PROJECT LOS ANGELES - VANCE NORTH NECESSITIES OF LIFE PROGRAM - LANCASTER,320 E PALMDALE BLVD,PALMDALE,93550,6524347.39147322,2033417.45214164
25,34.1775883,-118.1509283,AIDS PROJECT LOS ANGELES - VANCE NORTH NECESSITIES OF LIFE PROGRAM - PASADENA,1845 N FAIR OAKS AVE G-125,PASADENA,91103,6516020.83791639,1887042.40138839
26,34.166187,-118.3789425,RESCUE MISSION ALLIANCE - VALLEY FOOD BANK - ST. PAUL'S FIRST LUTHERAN CHURCH,5244 TUJUNGA AVE,NORTH HOLLYWOOD,91601,6447040.6546828,1883075.05991365
27,34.0520022,-118.2203334,CATHOLIC CHARITIES OF LOS ANGELES - BROWNSON HOUSE COMMUNITY SERVICES CENTER,1307 WARREN ST,LOS ANGELES,90033,6494928.54381497,1841378.15479057
28,34.19950354,-118.5373805,AIDS PROJECT LOS ANGELES - VANCE NORTH NECESSITIES OF LIFE PROGRAM - RESEDA,7101 BAIRD AVE,RESEDA,91335,6399178.54207389,1895417.83148789
29,33.99949466,-118.4713364,AIDS PROJECT LOS ANGELES - VANCE NORTH NECESSITIES OF LIFE PROGRAM - VENICE,622 ROSE AVE,VENICE,90291,6418807.33614956,1822531.41164422
30,33.855912,-118.133742,CITY OF LAKEWOOD RECREATION AND COMMUNITY SERVICES - BURNS COMMUNITY CENTER,5510 CLARK AVE,LAKEWOOD,90712,6521063.21923581,1769970.50856414
31,33.97789505,-118.2190218,BUDDHIST TZU CHI FOUNDATION - MOBILE FOOD PANTRY - MILES ELEMENTARY SCHOOL,6720 MILES AVE,HUNTINGTON PARK,90255,6495267.08086756,1814408.26155198
32,34.02359424,-118.1562953,DESIGNATED EXCEPTIONAL SERVICES FOR INDEPENDENCE - EXTRA HELPINGS PROGRAM,646 S ATLANTIC BLVD,EAST LOS ANGELES,90022,6514310.40925063,1831003.61025098
33,33.9664187,-118.3978028,YMCA OF METROPOLITAN LOS ANGELES - WESTCHESTER FAMILY YMCA - FOOD PROGRAM,8020 ALVERSTONE ST,LOS ANGELES,90045,6441047.75426705,1810398.1134043
34,33.78745227,-118.1924018,LUTHERAN SOCIAL SERVICES OF SOUTHERN CALIFORNIA - LONG BEACH AREA OFFICE,1611 PINE AVE,LONG BEACH,90813,6503205.09255056,1745085.14298065
35,34.22989748,-118.555443,RESCUE MISSION ALLIANCE - VALLEY FOOD BANK - THE HOUSE - A CHURCH FAMILY,19345 LONDELIUS ST,NORTHRIDGE,91324,6393778.02236314,1906508.2561574
36,34.0930749,-118.1282285,BUDDHIST TZU CHI FOUNDATION - MOBILE FOOD PANTRY - ALHAMBRA HIGH SCHOOL,101 S 2ND ST,ALHAMBRA,91801,6522847.3416518,1856276.91108222
37,33.8838513,-118.3060838,CITY OF GARDENA RECREATION AND HUMAN SERVICES - HUMAN SERVICES DIVISION,1651 W 162ND ST,GARDENA,90247,6468767.38386706,1780252.73570307
38,33.94598724,-118.2915736,YMCA OF METROPOLITAN LOS ANGELES - WEINGART WELLNESS AND AQUATIC CENTER,9900 S VERMONT AVE,LOS ANGELES,90044,6473237.11869398,1802852.23938848
39,33.9027243,-118.16004,CITY OF PARAMOUNT DEPARTMENT OF PARKS AND RECREATION - SENIOR SERVICES,14400 PARAMOUNT BLVD,PARAMOUNT,90723,6513105.67445539,1787018.28057089
40,34.31364899,-118.4280255,RESCUE MISSION ALLIANCE - VALLEY FOOD BANK - LA VOZ SYLMAR SDA CHURCH,13550 HERRON ST,SYLMAR,91342,6432421.69737221,1936798.27530165
41,34.23168,-118.4574725,RESCUE MISSION ALLIANCE - VALLEY FOOD BANK - OASIS FOURSQUARE CHURCH,8856 KESTER AVE,PANORAMA CITY,91402,6423394.03793414,1907007.73448914
42,34.22923051,-118.4357939,RESCUE MISSION ALLIANCE - VALLEY FOOD BANK - PANORAMA BAPTIST CHURCH,8767 WOODMAN AVE,ARLETA,91331,6429942.73645088,1906087.2136924
43,34.212375,-118.536043,RESCUE MISSION ALLIANCE - VALLEY FOOD BANK - RESEDA CHURCH OF CHRIST,7806 RESEDA BLVD,RESEDA,91335,6399607.94771114,1900099.76241273
44,34.0219327,-118.1643607,L A CARE HEALTH PLAN - COMMUNITY RESOURCE CENTER - EAST LOS ANGELES,4801 WHITTIER BLVD,LOS ANGELES,90022,6511865.47942922,1830402.8414394
45,34.06305885,-118.3028813,AIDS PROJECT LOS ANGELES - VANCE NORTH NECESSITIES OF LIFE PROGRAM,611 S KINGSLEY DR,LOS ANGELES,90005,6469935.91991581,1845466.94221665
46,33.96507553,-118.1816133,CITY OF CUDAHY PARKS AND RECREATION DEPARTMENT - CLARA STREET PARK,4835 CLARA ST,CUDAHY,90201,6506600.18779448,1809720.37230572
47,33.91976263,-118.4113022,CITY OF EL SEGUNDO RECREATION AND PARKS DEPARTMENT - JOSLYN CENTER,339 SHELDON ST,EL SEGUNDO,90245,6436884.98503356,1793435.55841872
48,33.93823778,-118.3043005,FIRST NEW CHRISTIAN MISSIONARY BAPTIST CHURCH - FOOD BANK PROGRAM,1555 W 108TH ST,LOS ANGELES,90047,6469368.56967255,1800043.49402173
49,33.969843,-118.256446,SALVATION ARMY CORPS COMMUNITY CENTER - SOUTH CENTRAL LOS ANGELES,7651 S CENTRAL AVE,LOS ANGELES,90001,6483913.31814206,1811504.79458989
50,34.03130988,-118.2089122,YMCA OF METROPOLITAN LOS ANGELES - WEINGART EAST LOS ANGELES YMCA,2900 WHITTIER BLVD,LOS ANGELES,90023,6498372.51560156,1833840.44250381
51,34.19184835,-118.4530815,ST. ELISABETH CATHOLIC CHURCH - SERVICE CENTER DISTRIBUTION SITE,6640 CEDROS AVE,VAN NUYS,91405,6424655.92156522,1892506.41309814
52,34.21094437,-118.4574787,RESCUE MISSION ALLIANCE - VALLEY FOOD BANK - ROCK OF THE VALLEY,7722 KESTER AVE,VAN NUYS,91405,6423357.82048689,1899461.75056539
53,34.23565915,-118.4919298,RESCUE MISSION ALLIANCE - VALLEY FOOD BANK - VALLEY PARK CHURCH,16514 NORDHOFF ST,NORTH HILLS,91343,6412986.09155847,1908504.98772822
54,34.0369302,-118.1857992,SALVATION ARMY CORPS COMMUNITY CENTER - EAST LOS ANGELES TEMPLE,140 N EASTMAN AVE,LOS ANGELES,90063,6505379.24305789,1835872.03555347
55,34.0432708,-118.459205,YMCA OF METROPOLITAN LOS ANGELES - COLLINS AND KATZ FAMILY YMCA,1466 S WESTGATE AVE,SANTA MONICA,90025,6422557.1406578,1838445.24038081
56,34.19736453,-118.600659,CATHOLIC CHARITIES OF LOS ANGELES - GUADALUPE COMMUNITY CENTER,21600 HART ST,CANOGA PARK,91303,6380040.10790989,1894747.7363714
57,34.225119,-118.571012,OUR REDEEMER LUTHERAN CHURCH - HUMAN CARE MINISTRY FOOD PANTRY,8520 WINNETKA AVE,WINNETKA,91306,6389062.19222789,1904795.67788965
58,34.05851909,-118.1233158,SHEPHERD OF THE HILLS UNITED METHODIST CHURCH OF MONTEREY PARK,333 S GARFIELD AVE,MONTEREY PARK,91754,6524319.30327481,1843699.5412239
59,34.06900651,-118.308285,YMCA OF METROPOLITAN LOS ANGELES - ANDERSON MUNGER FAMILY YMCA,4301 W 3RD ST,LOS ANGELES,90020,6468305.93104981,1847636.37521373
60,33.79034288,-118.2616482,BUDDHIST TZU CHI FOUNDATION - MOBILE FOOD PANTRY - WILMINGTON,1355 BROAD AVE,WILMINGTON,90744,6482165.92432714,1746184.63651656
61,34.13145224,-118.2613946,CATHOLIC CHARITIES OF LOS ANGELES - GLENDALE COMMUNITY CENTER,4322 SAN FERNANDO RD,GLENDALE,91204,6482565.79557464,1870321.2297783
62,33.78164788,-118.2626104,L A CARE HEALTH PLAN - COMMUNITY RESOURCE CENTER - WILMINGTON,911 N AVALON BLVD,WILMINGTON,90744,6481865.28385231,1743021.05590148
63,34.2733214,-118.3402136,RESCUE MISSION ALLIANCE - VALLEY FOOD BANK - MAKING IT HAPPEN,9666 FOOTHILL PL,LAKEVIEW TERRACE,91342,6458888.01550247,1922021.07683773
64,33.93087252,-118.325457,L A CARE HEALTH PLAN - COMMUNITY RESOURCE CENTER - INGLEWOOD,2864 W IMPERIAL HWY,INGLEWOOD,90303,6462942.62944047,1797383.22834489
65,34.6614274,-118.1828906,RESCUE MISSION ALLIANCE - VALLEY FOOD BANK - AV DREAM CENTER,2851 WEST AVE L #330,LANCASTER,93536,6506673.95503539,2063137.63777989
66,34.07421351,-118.0415124,L A CARE HEALTH PLAN - COMMUNITY RESOURCE CENTER - EL MONTE,3570 SANTA ANITA AVE,EL MONTE,91731,6549099.03750789,1849390.72800423
67,34.579794,-118.091721,L A CARE HEALTH PLAN - COMMUNITY RESOURCE CENTER - PALMDALE,2072 E PALMDALE BLVD,PALMDALE,93350,6534062.12105948,2033391.57227214
68,34.04821371,-118.3090811,L A CARE HEALTH PLAN - COMMUNITY RESOURCE CETNER - METRO LA,1233 S WESTERN AVE,LOS ANGELES,90006,6468041.56510872,1840070.24926989
69,34.00213597,-118.4054161,YMCA OF METROPOLITAN LOS ANGELES - CULVER-PALMS FAMILY YMCA,4500 SEPULVEDA BLVD,CULVER CITY,90230,6438791.6711808,1823405.49224514
70,34.02034712,-118.1204954,YMCA OF METROPOLITAN LOS ANGELES - MONTEBELLO COMMERCE YMCA,2000 W BEVERLY BLVD,MONTEBELLO,90640,6525156.92036597,1829806.98403531
71,34.27807359,-118.56434,YMCA OF METROPOLITAN LOS ANGELES - NORTH VALLEY FAMILY YMCA,11336 CORBIN AVE,PORTER RANCH,91326,6391187.20799097,1924055.12132606
72,33.95871722,-118.0849888,CITY OF SANTA FE SPRINGS - GUS VELASCO NEIGHBORHOOD CENTER,9255 PIONEER BLVD,SANTA FE SPRINGS,90670,6535897.43300563,1807367.59387481
73,33.93019263,-118.2130519,L A CARE HEALTH PLAN - COMMUNITY RESOURCE CENTER - LYNWOOD,3200 E IMPERIAL HWY,LYNWOOD,90262,6497040.24431597,1797044.46458673
74,34.26646562,-118.4225315,L A CARE HEALTH PLAN - COMMUNITY RESOURCE CENTER - PACOIMA,10807 SAN FERNANDO RD,PACOIMA,91331,6434008.50390989,1919620.51044464
75,34.16418,-118.3789705,YMCA OF METROPOLITAN LOS ANGELES - EAST VALLEY FAMILY YMCA,5142 TUJUNGA AVE,NORTH HOLLYWOOD,91601,6447029.43095197,1882344.71327722
76,34.19381599,-118.5433649,YMCA OF METROPOLITAN LOS ANGELES - WEST VALLEY FAMILY YMCA,18810 VANOWEN ST,RESEDA,91335,6397357.82261822,1893357.78737964
77,34.0823246,-118.0317367,CATHOLIC CHARITIES OF LOS ANGELES - SAN JUAN DIEGO CENTER,4171 TYLER AVE,EL MONTE,91731,6552060.3698398,1852341.4294519
78,33.9430586,-118.3618553,CATHOLIC CHARITIES OF LOS ANGELES - ST. MARGARET'S CENTER,10217 INGLEWOOD AVE,LENNOX,90304,6451917.17708197,1801855.73350748
79,34.0892311,-118.0289482,EL MONTE - SOUTH EL MONTE EMERGENCY RESOURCES ASSOCIATION,10900 MULHALL ST,EL MONTE,91731,6552905.46034122,1854854.58026548
80,34.06208256,-117.7609624,L A CARE HEALTH PLAN - COMMUNITY RESOURCE CENTER - POMONA,696 W HOLT AVE,POMONA,91768,6634069.15464081,1845059.5365354
81,34.196292,-118.445486,YMCA OF METROPOLITAN LOS ANGELES - MID VALLEY FAMILY YMCA,6901 LENNOX AVE,VAN NUYS,91405,6426959.99569722,1894113.25535689
82,33.99319391,-118.417921,ALLIES FOR EVERY CHILD - EARLY CARE AND EDUCATION CENTER,12120 WAGNER ST,CULVER CITY,90230,6434988.01868314,1820166.84321064
83,34.203393,-118.4487795,CATHOLIC CHARITIES OF LOS ANGELES - LOAVES AND FISHES II,7309 VAN NUYS BLVD,VAN NUYS,91405,6425975.61938514,1896701.84171514
84,34.04549368,-118.5275432,YMCA OF METROPOLITAN LOS ANGELES - PALISADES MALIBU YMCA,821 VIA DE LA PAZ,PACIFIC PALISADES,90272,6401858.94517763,1839355.7940059
85,33.99827988,-118.4774441,CATHOLIC CHARITIES OF LOS ANGELES - ST. ROBERT'S CENTER,211 3RD AVE,VENICE,90291,6416953.99405572,1822098.07031931
86,33.74268096,-118.2989279,SALVATION ARMY CORPS FAMILY SERVICE CENTER - SAN PEDRO,138 S BANDINI ST,SAN PEDRO,90731,6470786.56224339,1728870.7472599
87,33.9565009,-118.2629286,WEST WASHINGTON L A FOURSQUARE CHURCH - AVALON GARDENS,701 E 88TH PL,LOS ANGELES,90002,6481935.03207238,1806654.41288647
88,34.00368651,-118.3296555,CHRIST THE GOOD SHEPHERD EPISCOPAL CHURCH FOOD CLOSET,3303 W VERNON AVE,LOS ANGELES,90008,6461755.91790314,1823885.80198006
89,34.0645555,-117.752274,INLAND VALLEY HOPE PARTNERS - BETA FOOD SECURITY SITE,209 W PEARL ST,POMONA,91768,6636698.44137697,1845965.85591698
90,34.5726515,-118.0963665,PALMDALE 7TH DAY ADVENTIST CHURCH COMMUNITY SERVICES,1758 E AVENUE R,PALMDALE,93550,6532661.32432039,2030793.54433173
91,34.03261551,-118.331415,BEREAN 7TH DAY ADVENTIST CHURCH COMMUNITY SERVICES,4211 W ADAMS BLVD,LOS ANGELES,90018,6461257.34836222,1834415.34325689
92,33.78568524,-118.2629213,YMCA OF METROPOLITAN LOS ANGELES - WILMINGTON YMCA,1127 N AVALON BLVD,WILMINGTON,90744,6481774.64722255,1744490.60644007
93,34.10169256,-118.3194439,SALVATION ARMY CORPS COMMUNITY CENTER - HOLLYWOOD,5941 HOLLYWOOD BLVD,LOS ANGELES,90028,6464964.2605678,1859541.93998523
94,34.061086,-118.2933151,CHILDREN'S HOSPITAL LOS ANGELES - PROJECT NATEEN,3250 WILSHIRE BLVD STE 300,LOS ANGELES,90010,6472831.15592322,1844740.39478523
95,34.13662287,-118.2588018,SALVATION ARMY CORPS COMMUNITY CENTER - GLENDALE,320 W WINDSOR RD,GLENDALE,91204,6483355.28448123,1872200.88054655
96,34.12110842,-118.1725545,SYCAMORES - HIGHLAND PARK FAMILY RESOURCE CENTER,840 N AVE 66,LOS ANGELES,90042,6509444.53840497,1866498.89555947
97,33.77381261,-118.1837179,HELP ME HELP YOU - STEVENSON ELEMENTARY SCHOOL,515 LIME AVE,LONG BEACH,90802,6505834.79956147,1740116.3566584
98,34.09966181,-117.729009,INLAND VALLEY HOPE PARTNERS - CLAREMONT CENTER,660 N MOUNTAIN AVE,CLAREMONT,91711,6643710.18785214,1858759.8434523
99,34.1096367,-117.8065682,INLAND VALLEY HOPE PARTNERS - SAN DIMAS CENTER,110 E 3RD ST,SAN DIMAS,91773,6620222.95661147,1862335.64076264
100,33.79768432,-118.289626,SALVATION ARMY - STILLMAN SAWYER FAMILY CENTER,820 LOMITA BLVD,HARBOR CITY,90710,6473672.30975272,1748879.69018157
101,33.8837367,-118.3065233,CITY OF GARDENA RECREATION AND HUMAN SERVICES,1670 W 162ND ST,GARDENA,90247,6468633.8595278,1780211.43657306
102,34.10180947,-118.28997,HOPE-NET - METROPOLITAN CONGREGATIONAL CHURCH,4607 PROSPECT AVE,LOS ANGELES,90027,6473887.06785339,1859557.43765764
103,34.19393945,-118.4917455,SOVA FOOD PANTRY AND RESOURCE CENTER - VALLEY,16439 VANOWEN ST,VAN NUYS,91406,6412967.52040139,1893322.34420906
104,34.05573348,-117.6363765,INLAND VALLEY HOPE PARTNERS - SOVA FOOD SITE,904 E CALIFORNIA ST,ONTARIO,91761,6671811.48532397,1842862.12032656
105,34.0983558,-118.1074443,SAN GABRIEL MISSION CHRISTIAN SERVICE CENTER,254 1/2 S SANTA ANITA,SAN GABRIEL,91776,6529142.10530896,1858191.35213523
106,34.09009366,-117.745332,SOWING SEEDS FOR LIFE - CHARISMA LIFE CHURCH,305 E ARROW HWY,POMONA,91767,6638777.39424005,1855264.90326373
107,34.6499501,-118.1502899,ANTELOPE VALLEY LIVING WATER WORSHIP CENTER,1111 WEST AVENUE L-12 STE A,LANCASTER,93535,6516470.94200306,2058944.47326598
108,34.07543787,-118.2126881,EPIPHANY EPISCOPAL CHURCH - LINCOLN HEIGHTS,2808 ALTURA ST,LOS ANGELES,90031,6497262.44531514,1849901.83918673
109,33.805269,-118.215351,HELP ME HELP YOU - PHILADELPHIAN SDA CHURCH,2640 SANTA FE AVE,LONG BEACH,90810,6496245.40601064,1751583.27040431
110,34.05493353,-118.3847618,SOVA FOOD PANTRY AND RESOURCE CENTER - WEST,8846 W PICO BLVD,LOS ANGELES,90035,6445125.3553638,1842594.82853831
111,33.8877753,-118.0793569,CITY OF NORWALK SOCIAL SERVICES DEPARTMENT,11929 ALONDRA BLVD,NORWALK,90650,6537584.92897446,1781548.83481689
112,34.03870924,-118.308943,JOY COMMUNITY OUTREACH TO END HOMELESSNESS,1938 S WESTERN AVE,LOS ANGELES,90018,6468072.7681303,1836611.27423248
113,34.04731021,-118.2743,SALVATION ARMY - LOS ANGELES CENTRAL CORPS,1532 W 11TH ST,LOS ANGELES,90015,6478576.74843463,1839710.87498865
114,34.14956961,-118.1304337,SALVATION ARMY - PASADENA TABERNACLE CORPS,960 E WALNUT ST,PASADENA,91106,6522206.36360306,1876837.22396414
115,34.02077895,-118.4011185,ST. AUGUSTINE VOLUNTEER EMERGENCY SERVICES,3850 JASMINE AVE,CULVER CITY,90232,6440121.30959764,1830184.77035323
116,34.0520029,-117.7583647,INLAND VALLEY HOPE PARTNERS - POMONA SITE,810 S WHITE ST,POMONA,91766,6634864.75278714,1841393.24498348
117,34.04048448,-118.3370457,FIRST PRESBYTERIAN CHURCH OF LOS ANGELES,1809 WEST BLVD,LOS ANGELES,90019,6459560.95214872,1837284.67314814
118,34.1865865,-118.5342345,ONEGENERATION - SENIOR ENRICHMENT CENTER,18255 VICTORY BLVD,RESEDA,91335,6400104.8292633,1890712.08269732
119,34.5755547,-118.1114924,SOUTH ANTELOPE VALLEY EMERGENCY SERVICES,1002 E AVENUE Q-12,PALMDALE,93550,6528109.17889714,2031854.79942706
120,34.105284,-117.8376675,SOWING SEEDS FOR LIFE - REAL LIFE CHURCH,5119 N VALLEY CENTER AVE,COVINA,91724,6610811.6361953,1860734.95400339
121,33.89270531,-118.2218843,TAMARIND AVENUE 7TH DAY ADVENTIST CHURCH,417 S TAMARIND AVE,COMPTON,90220,6494330.79205772,1783407.79632206
122,33.9431199,-118.1326419,DOWNEY FIRST CHRISTIAN CHURCH FOOD HELP,10900 LA REINA,DOWNEY,90241,6521439.11284097,1801707.03728256
123,34.06174015,-118.2945603,HOPE-NET - IMMANUEL PRESBYTERIAN CHURCH,3300 WILSHIRE BLVD,LOS ANGELES,90010,6472454.70884147,1844979.55441189
124,34.0686334,-118.3081845,HOPE-NET - WILSHIRE PRESBYTERIAN CHURCH,309 S OXFORD ST,LOS ANGELES,90020,6468335.95133097,1847500.50081356
125,34.01969544,-118.1332118,MEXICAN AMERICAN OPPORTUNITY FOUNDATION,401 N GARFIELD AVE,MONTEBELLO,90640,6521303.18857214,1829574.68758389
126,34.38024762,-118.5343621,CORPS COMMUNITY CENTER - SANTA CLARITA,22935 LYONS AVE,SANTA CLARITA,91321,6400440.90011346,1961188.16156115
127,34.11007018,-118.2705825,HOPE-NET - SILVERLAKE COMMUNITY CHURCH,2930 HYPERION AVE,LOS ANGELES,90027,6479764.36745048,1862547.28830522
128,34.1501904,-118.3868047,NORTH HOLLYWOOD INTERFAITH FOOD PANTRY,11634 MOORPARK ST,NORTH HOLLYWOOD,91604,6444639.95771256,1877262.70769323
129,34.08969888,-117.887889,PROJECT 29:11 - ECONOMIC RELIEF CENTER,418 N 2ND AVE,COVINA,91723,6595614.9185573,1855042.48441723
130,34.15044093,-118.366849,ST. CHARLES HOLY FAMILY SERVICE CENTER,10825 MOORPARK ST,NORTH HOLLYWOOD,91602,6450677.99550521,1877331.24495773
131,33.791652,-118.3146095,ST. MARGARET MARY'S CHRISTIAN SERVICES,25511 ESHELMAN AVE,LOMITA,90717,6466074.64187722,1746707.1879649
132,34.1907159,-118.1587284,ALTADENA SEVENTH-DAY ADVENTIST CHURCH,2609 N LINCOLN AVE,ALTADENA,91001,6513669.17923389,1891823.40068464
133,34.06171946,-118.31211,HOPE-NET - ST. JAMES EPISCOPAL CHURCH,3903 WILSHIRE BLVD,LOS ANGELES,90010,6467139.29558781,1844988.06522164
134,34.04130894,-118.3533889,WEST WASHINGTON L A FOURSQUARE CHURCH,5175 1/2 W WASHINGTON BLVD,LOS ANGELES,90016,6454610.78652413,1837601.71286839
135,34.1422118,-118.0157726,FOOTHILL UNITY CENTER INC - MONROVIA,790 W CHESTNUT AVE,MONROVIA,91106,6556897.7696138,1874134.35371372
136,34.14969335,-118.1076739,FOOTHILL UNITY CENTER INC - PASADENA,191 N OAK AVE,PASADENA,91107,6529092.60704839,1876874.09921847
137,34.0617628,-118.3047281,HOPE-NET - WILSHIRE BOULEVARD TEMPLE,3663 WILSHIRE BLVD,LOS ANGELES,90010,6469375.14675914,1844996.97727731
138,33.94184149,-118.343052,INGLEWOOD SOUTHSIDE CHRISTIAN CHURCH,3947 W 104TH ST,INGLEWOOD,90303,6457618.81134798,1801392.80562755
139,34.011225,-117.980568,ST. MARTIN DE PORRES OUTREACH CENTER,1345 TURNBULL CANYON RD,HACIENDA HEIGHTS,91745,6567559.42119072,1826465.94675414
140,34.686486,-118.147971,ANTELOPE VALLEY PARTNERS FOR HEALTH,44226 10TH ST WEST,LANCASTER,93534,6517187.91924363,2072239.92141256
141,33.8176497,-118.376841,ST. LAWRENCE MARTYR CATHOLIC CHURCH,1940 S PROSPECT AVE,REDONDO BEACH,90277,6447200.83284013,1756233.42777064
142,33.779628,-118.1923425,FIRST BAPTIST CHURCH OF LONG BEACH,1000 PINE AVE,LONG BEACH,90813,6503217.66371964,1742237.64178589
143,34.06352351,-118.3044105,KARSH FAMILY SOCIAL SERVICE CENTER,3750 W 6TH ST,LOS ANGELES,90020,6469473.28074922,1845637.43925098
144,34.2630847,-118.4195049,MEET EACH NEED WITH DIGNITY - MEND,10641 N SAN FERNANDO RD,PACOIMA,91331,6434917.80753747,1918386.31278181
145,33.963318,-118.3134275,SAINT MARK UNITED METHODIST CHURCH,8305 S GRAMERCY PL,LOS ANGELES,90047,6466628.5958218,1809179.19491039
146,33.87897848,-118.1208366,BETHANY CHRISTIAN REFORMED CHURCH,17054 BIXBY AVE,BELLFLOWER,90706,6524991.68283555,1778359.99933106
147,34.00474311,-118.1191031,HEART OF COMPASSION DISTRIBUTION,600 S MAPLE AVE,MONTEBELLO,90640,6525572.09702906,1824127.87006548
148,33.964722,-118.3089835,NEW DIRECTION COMMUNITY PROGRAMS,8124 S WESTERN AVE,LOS ANGELES,90047,6467977.73223114,1809685.96587847
149,34.23191627,-118.4691843,NORTH VALLEY CARING SERVICES INC,15453 RAYEN ST,NORTH HILLS,91343,6419854.43904223,1907110.03382523
150,34.07983467,-118.0983615,SALVATION ARMY SAN GABRIEL CORPS,125 E VALLEY BLVD,SAN GABRIEL,91776,6531885.28289346,1851448.35151364
151,34.37666846,-118.5250447,SANTA CLARITA VALLEY FOOD PANTRY,24133 RAILROAD AVE,NEWHALL,91321,6403245.34627622,1959870.83808032
152,34.03383697,-118.2694875,ST. FRANCIS CENTER - LOS ANGELES,1835 S HOPE ST,LOS ANGELES,90015,6480021.44862922,1834803.77259815
153,34.02782575,-118.2753949,HOPE-NET - ST. JOHN'S EPISCOPAL,514 W ADAMS BLVD,LOS ANGELES,90007,6478225.64480613,1832621.02958831
154,34.07493809,-118.0907465,ST. ANTHONY'S CHRISTIAN SERVICE,1901 S SAN GABRIEL BLVD,SAN GABRIEL,91776,6534189.58832422,1849664.22450447
155,33.78786739,-118.3095473,WAYSIDE UNITED METHODIST CHURCH,25904 CAYUGA AVE,LOMITA,90717,6467608.57089597,1745325.09427239
156,33.73607651,-118.2916755,HARBOR INTERFAITH SERVICES INC,670 W 9TH ST,SAN PEDRO,90731,6472984.54669255,1726460.72025581
157,33.9165022,-118.317788,HOLLYPARK UMC OUTREACH PROGRAM,13000 S VAN NESS BLVD,GARDENA,90249,6465252.48702547,1792146.12661439
158,33.8033275,-118.1106,ST. GREGORY'S EPISCOPAL CHURCH,6201 E WILLOW ST,LONG BEACH,90815,6528068.6008943,1750825.10951906
159,34.0262996,-117.919498,SHEPHERD'S PANTRY - LA PUENTE,504 N RIMGROVE DR,LA PUENTE,91744,6586062.93864556,1831961.09619689
160,34.28091079,-118.4430805,ST. FERDINAND OUTREACH CENTER,1040 CORONEL ST,SAN FERNANDO,91340,6427823.12914155,1924904.05335523
161,34.1336373,-117.9023788,ST. FRANCES OF ROME FOOD BANK,501 E FOOTHILL BLVD,AZUSA,91702,6591212.21935748,1871027.90848306
162,33.8288398,-118.276644,ST. PHILOMENA CATHOLIC CHURCH,21900 S MAIN ST,CARSON,90745,6477647.86938688,1760206.85059807
163,34.02603856,-118.2565326,ALL PEOPLES COMMUNITY CENTER,822 E 20TH ST,LOS ANGELES,90011,6483939.25214531,1831955.5154994
164,34.18269767,-118.3261618,BURBANK TEMPORARY AID CENTER,1304 W BURBANK BLVD,BURBANK,91506,6463026.19423397,1889027.56178814
165,33.77053449,-118.1860515,CHRISTIAN OUTREACH IN ACTION,515 E 3RD ST,LONG BEACH,90802,6505123.36463264,1738924.66120714
166,34.0985154,-118.3350997,HOPE-NET - BLESSED SACRAMENT,6657 SUNSET BLVD,LOS ANGELES,90028,6460220.90194431,1858401.1492878
167,34.06727728,-118.271794,REGIS HOUSE COMMUNITY CENTER,2212 BEVERLY BLVD,LOS ANGELES,90057,6479355.53591906,1846975.18985631
168,34.1070744,-117.8510611,SHEPHERD'S PANTRY - GLENDORA,657 E ARROW HWY STE J,GLENDORA,91740,6606756.16366322,1861380.23519315
169,34.07353673,-118.2593327,ST. ATHANASIUS AND ST. PAUL,840 ECHO PARK AVE,LOS ANGELES,90026,6483135.40040655,1849243.14529414
170,34.609023,-117.8222895,TWIN LAKES COMMUNITY CHURCH,17213 LAKE LOS ANGELES AVE,PALMDALE,93591,6615142.74465905,2044063.44823806
171,34.002648,-118.308959,FAITH IN CHRIST MINISTRIES,4501 S WESTERN AVE,LOS ANGELES,90062,6468027.58416556,1823487.94253956
172,33.82710389,-118.0719825,HAWAIIAN GARDENS FOOD BANK,22121 NORWALK BLVD,HAWAIIAN GARDENS,90716,6539807.30412288,1759467.31500365
173,34.05772118,-118.2902552,HOPE-NET - FIRST UNITARIAN,2936 W 8TH ST,LOS ANGELES,90005,6473754.39882739,1843513.18660973
174,34.0836317,-118.1699475,AMERICAN RENASCENT CENTER,5210 EDNA ST #6,LOS ANGELES,90032,6510210.52079688,1852859.09114623
175,34.08126931,-117.7528949,BETHEL FOOD BANK OUTREACH,1921 N GAREY AVE,POMONA,91767,6636495.43817405,1852047.84965847
176,33.927759,-118.0466155,CATHOLIC RAINBOW OUTREACH,11419 CARMENITA RD,WHITTIER,90605,6547528.93828589,1796093.60001865
177,34.0210131,-118.1501655,EASTMONT COMMUNITY CENTER,701 S HOEFNER AVE,LOS ANGELES,90022,6516166.43047297,1830061.45137414
178,33.87134332,-118.3948656,HOPE CHAPEL HERMOSA BEACH,2420 PACIFIC COAST HWY,HERMOSA BEACH,90254,6441802.4545293,1775794.77020957
179,34.06639721,-118.2916366,HOPE-NET - ISLAMIC CENTER,434 S VERMONT AVE,LOS ANGELES,90020,6473345.14570889,1846671.75903273
180,34.032123,-118.2915795,ST. AGNES CATHOLIC CHURCH,2625 S VERMONT AVE,LOS ANGELES,90007,6473326.25795139,1834198.70786339
181,33.99556361,-118.4189664,ST. GERARD MAJELLA CHURCH,4439 INGLEWOOD BLVD,LOS ANGELES,90066,6434674.72797114,1821030.53767748
182,34.04867785,-118.2161248,WHITE MEMORIAL SDA CHURCH,401 N STATE ST,LOS ANGELES,90033,6496200.77945948,1840165.59422356
183,34.03022741,-118.1505735,BIENESTAR HUMAN SERVICES,5326 E BEVERLY BLVD,LOS ANGELES,90022,6516047.81948972,1833414.90398481
184,33.92889004,-118.1540514,DOWNEY COUNCIL PTA HELPS,7810 QUILL DR STE S,DOWNEY,90242,6514937.52709089,1796537.74119073
185,33.8945907,-118.3453305,SOUTHBAY OUTREACH CENTER,4046 MARINE AVE,LAWNDALE,90260,6456868.64388505,1784199.63430531
186,33.94449548,-118.2461849,ST. LAWRENCE OF BRINDISI,10122 COMPTON AVE,LOS ANGELES,90002,6487001.98945814,1802272.5331988
187,34.65758933,-118.1476103,SHEKINAH WORSHIP CENTER,42640 10TH ST WEST,LANCASTER,93534,6517280.90855896,2061723.41291806
188,34.1148915,-117.882038,VILLAGE COVENANT CHURCH,5607 BARRANCA AVE,AZUSA,91702,6597375.70342155,1864212.57139198
189,34.173711,-118.612304,WEST VALLEY FOOD PANTRY,5700 RUDNICK AVE,WOODLAND HILLS,91367,6376466.4434693,1886161.19416131
190,34.04354232,-118.3180745,WORLD HARVEST FOOD BANK,3100 VENICE BLVD,LOS ANGELES,90019,6465311.85764164,1838378.74641931
191,34.08055962,-117.9762142,CHURCH OF THE REDEEMER,3739 MONTEREY AVE,BALDWIN PARK,91706,6568872.91462672,1851698.45567223
192,34.7052433,-118.1116278,DESERT VINEYARD CHURCH,1011 E AVENUE I,LANCASTER,93534,6528120.83340138,2079052.17419223
193,33.96269119,-118.0650459,INTERFAITH FOOD CENTER,11819 BURKE ST,SANTA FE SPRINGS,90670,6541946.06657764,1808809.29341923
194,34.25176238,-118.4247314,KHALSA CARE FOUNDATION,9989 LAUREL CANYON BLVD,PACOIMA,91331,6433321.23035005,1914272.58282031
195,33.8043464,-118.185302,"AIDS FOOD STORE , THE",590 E WILLOW ST,LONG BEACH,90806,6505373.84477472,1751229.31835631
196,34.0236767,-118.2488553,CHRISTIAN FOOD CENTER,1355 E WASHINGTON BLVD,LOS ANGELES,90021,6486263.39251013,1831090.14190206
197,33.9088631,-118.3521973,HOPE CHAPEL HAWTHORNE,13560 S HAWTHORNE BLVD,HAWTHORNE,90250,6454802.89900081,1789400.89227548
198,34.28216252,-118.3915533,PEACE LUTHERAN CHURCH,11690 FENTON AVE,LAKE VIEW TERRACE,91342,6443390.3253693,1925294.95480439
199,34.19377148,-118.608462,FAMILY RESCUE CENTER,22103 VANOWEN ST,CANOGA PARK,91303,6377672.71205413,1893454.37576914
200,34.24995447,-118.5784425,FISH OF WEST VALLEY,20440 LASSEN ST,CHATSWORTH,91311,6386868.10147172,1913846.4481739
201,34.7030117,-118.1374805,GRACE RESOURCES INC,45134 N SIERRA HWY,LANCASTER,93534,6520349.75248688,2078249.65315948
202,34.04472806,-118.24528,LOS ANGELES MISSION,303 E 5TH ST,LOS ANGELES,90013,6487365.45493856,1838748.4625434
203,34.09922548,-117.9006525,ACTION FOOD PANTRY,17880 E COVINA BLVD,COVINA,91722,6591747.00568947,1858505.3265729
204,34.04727676,-118.2982421,CENTRO SANTO TOMAS,2727 W PICO BLVD,LOS ANGELES,90006,6471323.96110298,1839719.35758322
205,34.08588876,-118.0291786,OUR SAVIOUR CENTER,4368 SANTA ANITA AVE,EL MONTE,91731,6552835.34729247,1853638.25986348
206,33.8934877,-118.2283345,ST. TIMOTHY CHURCH,312 S OLEANDER AVE,COMPTON,90222,6492373.87438364,1783696.90958898
207,34.07419728,-118.269789,"DREAM CENTER, THE",2301 BELLEVUE AVE,LOS ANGELES,90026,6479969.52255197,1849491.86526914
208,33.7923597,-118.3173674,HIS HELPING HANDS,25501 OAK ST,LOMITA,90717,6465237.45588756,1746967.37281197
209,34.11472265,-117.9741144,SHEPHERD'S PANTRY,1418 ARROW HWY,IRWINDALE,91706,6569505.55181289,1864131.18015055
210,33.9977529,-118.4781377,ST. JOSEPH CENTER,204 HAMPTON DR,VENICE,90291,6416742.84880872,1821907.29281373
211,34.03434487,-118.3065052,FIRST AME CHURCH,2270 S HARVARD BLVD,LOS ANGELES,90018,6468806.48024556,1835020.74034005
212,33.96968972,-118.3502294,FOOD PANTRY LAX,355 E BEACH AVE,INGLEWOOD,90302,6455477.14502764,1811534.82536973
213,34.16889948,-118.141344,FRIENDS IN DEED,444 E WASHINGTON BLVD,PASADENA,91104,6518915.24026406,1883876.17117231
214,33.87801249,-118.203889,POOLS OF HOPE,6801 LONG BEACH BLVD,LONG BEACH,90805,6499781.32347947,1778049.1725249
215,34.28918881,-118.4327613,RESCUE MISSION ALLIANCE - VALLEY FOOD BANK - LIGHTHOUSE OF SAN FERNANDO,622 N MACLAY AVE,SAN FERNANDO,93140,6430953.33744806,1927902.96828914
216,34.10184683,-117.7850837,DAVID AND MARGARET YOUTH AND FAMILY SERVICES - FOOD DISTRIBUTION SITE,1351 PALOMARES AVE,LA VERNE,91104,6626732.45638771,1859513.97842698
217,34.70220066,-118.1340162,OUR LADY OF CHARITY CONFERENCE - THE SOCIETY OF ST. VINCENT DE PAUL,45058 TREVOR ST,LANCASTER,93534,6521390.57422414,2077953.08419882
218,33.96768328,-118.0552948,SALVATION ARMY CORPS COMMUNITY CENTER - WHITTIER,12000 WASHINGTON,WHITTIER,90606,6544903.95337839,1810624.25173156
219,34.14607496,-118.1479315,SOUTHERN CALIFORNIA INDIAN CENTER - LOS ANGELES,117 EAST COLORADO BLVD STE 600,PASADENA,91105,6516910.36664914,1875572.78850089
220,33.93791277,-118.2925239,AARON COMMUNITY CULTURAL CENTER,1010-B W 108TH ST,LOS ANGELES,90044,6472940.34566547,1799914.61140548
